<?xml version="1.0" encoding="UTF-8"?>
<ndm xmlns:xsi="http://www.w3.org/2001/XMLSchema-instance" xsi:noNamespaceSchemaLocation="https://sanaregistry.org/r/ndmxml_unqualified/ndmxml-2.0.0-master-2.0.xsd">
<omm id="CCSDS_OMM_VERS" version="2.0">
<header><CREATION_DATE/><ORIGINATOR/></header><body><segment><metadata><OBJECT_NAME>IRIDIUM 126</OBJECT_NAME><OBJECT_ID>2017-039G</OBJECT_ID><CENTER_NAME>EARTH</CENTER_NAME><REF_FRAME>TEME</REF_FRAME><TIME_SYSTEM>UTC</TIME_SYSTEM><MEAN_ELEMENT_THEORY>SGP4</MEAN_ELEMENT_THEORY></metadata><data><meanElements><EPOCH>2024-12-14T17:19:02.949888</EPOCH><MEAN_MOTION>14.34218507</MEAN_MOTION><ECCENTRICITY>.000208</ECCENTRICITY><INCLINATION>86.3989</INCLINATION><RA_OF_ASC_NODE>223.2203</RA_OF_ASC_NODE><ARG_OF_PERICENTER>77.6233</ARG_OF_PERICENTER><MEAN_ANOMALY>282.5195</MEAN_ANOMALY></meanElements><tleParameters><EPHEMERIS_TYPE>0</EPHEMERIS_TYPE><CLASSIFICATION_TYPE>U</CLASSIFICATION_TYPE><NORAD_CAT_ID>42809</NORAD_CAT_ID><ELEMENT_SET_NO>999</ELEMENT_SET_NO><REV_AT_EPOCH>39119</REV_AT_EPOCH><BSTAR>.11898E-3</BSTAR><MEAN_MOTION_DOT>.353E-5</MEAN_MOTION_DOT><MEAN_MOTION_DDOT>0</MEAN_MOTION_DDOT></tleParameters></data></segment></body></omm>
<omm id="CCSDS_OMM_VERS" version="2.0">
<header><CREATION_DATE/><ORIGINATOR/></header><body><segment><metadata><OBJECT_NAME>IRIDIUM 124</OBJECT_NAME><OBJECT_ID>2017-039H</OBJECT_ID><CENTER_NAME>EARTH</CENTER_NAME><REF_FRAME>TEME</REF_FRAME><TIME_SYSTEM>UTC</TIME_SYSTEM><MEAN_ELEMENT_THEORY>SGP4</MEAN_ELEMENT_THEORY></metadata><data><meanElements><EPOCH>2024-12-14T21:11:15.281664</EPOCH><MEAN_MOTION>14.43280800</MEAN_MOTION><ECCENTRICITY>.0001706</ECCENTRICITY><INCLINATION>86.4510</INCLINATION><RA_OF_ASC_NODE>159.9956</RA_OF_ASC_NODE><ARG_OF_PERICENTER>103.4388</ARG_OF_PERICENTER><MEAN_ANOMALY>256.7004</MEAN_ANOMALY></meanElements><tleParameters><EPHEMERIS_TYPE>0</EPHEMERIS_TYPE><CLASSIFICATION_TYPE>U</CLASSIFICATION_TYPE><NORAD_CAT_ID>42810</NORAD_CAT_ID><ELEMENT_SET_NO>999</ELEMENT_SET_NO><REV_AT_EPOCH>39588</REV_AT_EPOCH><BSTAR>.72328E-4</BSTAR><MEAN_MOTION_DOT>.263E-5</MEAN_MOTION_DOT><MEAN_MOTION_DDOT>0</MEAN_MOTION_DDOT></tleParameters></data></segment></body></omm>
<omm id="CCSDS_OMM_VERS" version="2.0">
<header><CREATION_DATE/><ORIGINATOR/></header><body><segment><metadata><OBJECT_NAME>IRIDIUM 128</OBJECT_NAME><OBJECT_ID>2017-039J</OBJECT_ID><CENTER_NAME>EARTH</CENTER_NAME><REF_FRAME>TEME</REF_FRAME><TIME_SYSTEM>UTC</TIME_SYSTEM><MEAN_ELEMENT_THEORY>SGP4</MEAN_ELEMENT_THEORY></metadata><data><meanElements><EPOCH>2024-12-14T15:25:13.868832</EPOCH><MEAN_MOTION>14.34214986</MEAN_MOTION><ECCENTRICITY>.0001786</ECCENTRICITY><INCLINATION>86.3970</INCLINATION><RA_OF_ASC_NODE>254.7634</RA_OF_ASC_NODE><ARG_OF_PERICENTER>81.9312</ARG_OF_PERICENTER><MEAN_ANOMALY>278.2087</MEAN_ANOMALY></meanElements><tleParameters><EPHEMERIS_TYPE>0</EPHEMERIS_TYPE><CLASSIFICATION_TYPE>U</CLASSIFICATION_TYPE><NORAD_CAT_ID>42811</NORAD_CAT_ID><ELEMENT_SET_NO>999</ELEMENT_SET_NO><REV_AT_EPOCH>39121</REV_AT_EPOCH><BSTAR>.15525E-3</BSTAR><MEAN_MOTION_DOT>.455E-5</MEAN_MOTION_DOT><MEAN_MOTION_DDOT>0</MEAN_MOTION_DDOT></tleParameters></data></segment></body></omm>
<omm id="CCSDS_OMM_VERS" version="2.0">
<header><CREATION_DATE/><ORIGINATOR/></header><body><segment><metadata><OBJECT_NAME>IRIDIUM 121</OBJECT_NAME><OBJECT_ID>2017-039K</OBJECT_ID><CENTER_NAME>EARTH</CENTER_NAME><REF_FRAME>TEME</REF_FRAME><TIME_SYSTEM>UTC</TIME_SYSTEM><MEAN_ELEMENT_THEORY>SGP4</MEAN_ELEMENT_THEORY></metadata><data><meanElements><EPOCH>2024-12-14T14:25:30.951552</EPOCH><MEAN_MOTION>14.34217662</MEAN_MOTION><ECCENTRICITY>.0001884</ECCENTRICITY><INCLINATION>86.3987</INCLINATION><RA_OF_ASC_NODE>223.2943</RA_OF_ASC_NODE><ARG_OF_PERICENTER>86.9312</ARG_OF_PERICENTER><MEAN_ANOMALY>273.2099</MEAN_ANOMALY></meanElements><tleParameters><EPHEMERIS_TYPE>0</EPHEMERIS_TYPE><CLASSIFICATION_TYPE>U</CLASSIFICATION_TYPE><NORAD_CAT_ID>42812</NORAD_CAT_ID><ELEMENT_SET_NO>999</ELEMENT_SET_NO><REV_AT_EPOCH>39105</REV_AT_EPOCH><BSTAR>.53972E-4</BSTAR><MEAN_MOTION_DOT>.171E-5</MEAN_MOTION_DOT><MEAN_MOTION_DDOT>0</MEAN_MOTION_DDOT></tleParameters></data></segment></body></omm>
<omm id="CCSDS_OMM_VERS" version="2.0">
<header><CREATION_DATE/><ORIGINATOR/></header><body><segment><metadata><OBJECT_NAME>IRIDIUM 133</OBJECT_NAME><OBJECT_ID>2017-061A</OBJECT_ID><CENTER_NAME>EARTH</CENTER_NAME><REF_FRAME>TEME</REF_FRAME><TIME_SYSTEM>UTC</TIME_SYSTEM><MEAN_ELEMENT_THEORY>SGP4</MEAN_ELEMENT_THEORY></metadata><data><meanElements><EPOCH>2024-12-14T16:10:54.779232</EPOCH><MEAN_MOTION>14.34217697</MEAN_MOTION><ECCENTRICITY>.0002049</ECCENTRICITY><INCLINATION>86.3973</INCLINATION><RA_OF_ASC_NODE>254.8543</RA_OF_ASC_NODE><ARG_OF_PERICENTER>82.6210</ARG_OF_PERICENTER><MEAN_ANOMALY>277.5218</MEAN_ANOMALY></meanElements><tleParameters><EPHEMERIS_TYPE>0</EPHEMERIS_TYPE><CLASSIFICATION_TYPE>U</CLASSIFICATION_TYPE><NORAD_CAT_ID>42955</NORAD_CAT_ID><ELEMENT_SET_NO>999</ELEMENT_SET_NO><REV_AT_EPOCH>37601</REV_AT_EPOCH><BSTAR>.54918E-4</BSTAR><MEAN_MOTION_DOT>.174E-5</MEAN_MOTION_DOT><MEAN_MOTION_DDOT>0</MEAN_MOTION_DDOT></tleParameters></data></segment></body></omm>
<omm id="CCSDS_OMM_VERS" version="2.0">
<header><CREATION_DATE/><ORIGINATOR/></header><body><segment><metadata><OBJECT_NAME>IRIDIUM 100</OBJECT_NAME><OBJECT_ID>2017-061B</OBJECT_ID><CENTER_NAME>EARTH</CENTER_NAME><REF_FRAME>TEME</REF_FRAME><TIME_SYSTEM>UTC</TIME_SYSTEM><MEAN_ELEMENT_THEORY>SGP4</MEAN_ELEMENT_THEORY></metadata><data><meanElements><EPOCH>2024-12-14T17:42:14.783040</EPOCH><MEAN_MOTION>14.34218885</MEAN_MOTION><ECCENTRICITY>.0001923</ECCENTRICITY><INCLINATION>86.3970</INCLINATION><RA_OF_ASC_NODE>254.7593</RA_OF_ASC_NODE><ARG_OF_PERICENTER>79.2535</ARG_OF_PERICENTER><MEAN_ANOMALY>280.8877</MEAN_ANOMALY></meanElements><tleParameters><EPHEMERIS_TYPE>0</EPHEMERIS_TYPE><CLASSIFICATION_TYPE>U</CLASSIFICATION_TYPE><NORAD_CAT_ID>42956</NORAD_CAT_ID><ELEMENT_SET_NO>999</ELEMENT_SET_NO><REV_AT_EPOCH>37602</REV_AT_EPOCH><BSTAR>.19762E-3</BSTAR><MEAN_MOTION_DOT>.573E-5</MEAN_MOTION_DOT><MEAN_MOTION_DDOT>0</MEAN_MOTION_DDOT></tleParameters></data></segment></body></omm>
<omm id="CCSDS_OMM_VERS" version="2.0">
<header><CREATION_DATE/><ORIGINATOR/></header><body><segment><metadata><OBJECT_NAME>IRIDIUM 122</OBJECT_NAME><OBJECT_ID>2017-061C</OBJECT_ID><CENTER_NAME>EARTH</CENTER_NAME><REF_FRAME>TEME</REF_FRAME><TIME_SYSTEM>UTC</TIME_SYSTEM><MEAN_ELEMENT_THEORY>SGP4</MEAN_ELEMENT_THEORY></metadata><data><meanElements><EPOCH>2024-12-14T15:16:06.730464</EPOCH><MEAN_MOTION>14.34216702</MEAN_MOTION><ECCENTRICITY>.0001981</ECCENTRICITY><INCLINATION>86.3970</INCLINATION><RA_OF_ASC_NODE>254.8003</RA_OF_ASC_NODE><ARG_OF_PERICENTER>74.2990</ARG_OF_PERICENTER><MEAN_ANOMALY>285.8424</MEAN_ANOMALY></meanElements><tleParameters><EPHEMERIS_TYPE>0</EPHEMERIS_TYPE><CLASSIFICATION_TYPE>U</CLASSIFICATION_TYPE><NORAD_CAT_ID>42957</NORAD_CAT_ID><ELEMENT_SET_NO>999</ELEMENT_SET_NO><REV_AT_EPOCH>37601</REV_AT_EPOCH><BSTAR>.6377E-4</BSTAR><MEAN_MOTION_DOT>.198E-5</MEAN_MOTION_DOT><MEAN_MOTION_DDOT>0</MEAN_MOTION_DDOT></tleParameters></data></segment></body></omm>
<omm id="CCSDS_OMM_VERS" version="2.0">
<header><CREATION_DATE/><ORIGINATOR/></header><body><segment><metadata><OBJECT_NAME>IRIDIUM 129</OBJECT_NAME><OBJECT_ID>2017-061D</OBJECT_ID><CENTER_NAME>EARTH</CENTER_NAME><REF_FRAME>TEME</REF_FRAME><TIME_SYSTEM>UTC</TIME_SYSTEM><MEAN_ELEMENT_THEORY>SGP4</MEAN_ELEMENT_THEORY></metadata><data><meanElements><EPOCH>2024-12-15T01:55:26.839200</EPOCH><MEAN_MOTION>14.34218097</MEAN_MOTION><ECCENTRICITY>.000251</ECCENTRICITY><INCLINATION>86.3971</INCLINATION><RA_OF_ASC_NODE>254.6760</RA_OF_ASC_NODE><ARG_OF_PERICENTER>82.2926</ARG_OF_PERICENTER><MEAN_ANOMALY>277.8555</MEAN_ANOMALY></meanElements><tleParameters><EPHEMERIS_TYPE>0</EPHEMERIS_TYPE><CLASSIFICATION_TYPE>U</CLASSIFICATION_TYPE><NORAD_CAT_ID>42958</NORAD_CAT_ID><ELEMENT_SET_NO>999</ELEMENT_SET_NO><REV_AT_EPOCH>37609</REV_AT_EPOCH><BSTAR>.62223E-4</BSTAR><MEAN_MOTION_DOT>.194E-5</MEAN_MOTION_DOT><MEAN_MOTION_DDOT>0</MEAN_MOTION_DDOT></tleParameters></data></segment></body></omm>

</ndm>
