IRIDIUM 126             
1 42809U 17039G   24349.72156192  .00000353  00000+0  11898-3 0  9998
2 42809  86.3989 223.2203 0002080  77.6233 282.5195 14.34218507391190
IRIDIUM 124             
1 42810U 17039H   24349.88281576  .00000263  00000+0  72328-4 0  9998
2 42810  86.4510 159.9956 0001706 103.4388 256.7004 14.43280800395883
IRIDIUM 128             
1 42811U 17039J   24349.64252163  .00000455  00000+0  15525-3 0  9991
2 42811  86.3970 254.7634 0001786  81.9312 278.2087 14.34214986391210
IRIDIUM 121             
1 42812U 17039K   24349.60105268  .00000171  00000+0  53972-4 0  9995
2 42812  86.3987 223.2943 0001884  86.9312 273.2099 14.34217662391051
IRIDIUM 133             
1 42955U 17061A   24349.67424513  .00000174  00000+0  54918-4 0  9996
2 42955  86.3973 254.8543 0002049  82.6210 277.5218 14.34217697376011
IRIDIUM 100             
1 42956U 17061B   24349.73767110  .00000573  00000+0  19762-3 0  9997
2 42956  86.3970 254.7593 0001923  79.2535 280.8877 14.34218885376024
IRIDIUM 122             
1 42957U 17061C   24349.63618901  .00000198  00000+0  63770-4 0  9992
2 42957  86.3970 254.8003 0001981  74.2990 285.8424 14.34216702376014
IRIDIUM 129             
1 42958U 17061D   24350.08017175  .00000194  00000+0  62223-4 0  9998
2 42958  86.3971 254.6760 0002510  82.2926 277.8555 14.34218097376094
